{"type": "FeatureCollection", "features": [ {"type": "Feature", "properties": {"norad_id": 36173, "name": "FENGYUN 1C DEB", "group": "fengyun-1c-debris", "lat": -77.50821795841722, "lon": -20.907911612694594, "alt_km": 790.0048970329299, "timestamp": "2025-12-06T22:38:43.016097+00:00", "meta": {"OBJECT_NAME": "FENGYUN 1C DEB", "OBJECT_ID": "1999-025DSW", "EPOCH": "2025-11-27T03:07:28.371072", "MEAN_MOTION": 14.25142788, "ECCENTRICITY": 0.01460397, "INCLINATION": 98.2105, "RA_OF_ASC_NODE": 289.2336, "ARG_OF_PERICENTER": 231.4906, "MEAN_ANOMALY": 127.3105, "EPHEMERIS_TYPE": 0, "CLASSIFICATION_TYPE": "U", "NORAD_CAT_ID": 36173, "ELEMENT_SET_NO": 999, "REV_AT_EPOCH": 58868, "BSTAR": 0.00039734703, "MEAN_MOTION_DOT": 1e-05, "MEAN_MOTION_DDOT": 0}, "tle": {"line1": "1 36173U 99025DSW 25331.13018948  .00001000  00000+0  39735-3 0  9993", "line2": "2 36173  98.2105 289.2336 0146039 231.4906 127.3105 14.25142788588684"}}, "geometry": {"type": "Point", "coordinates": [-20.907911612694594, -77.50821795841722]}}, {"type": "Feature", "properties": {"norad_id": 36180, "name": "FENGYUN 1C DEB", "group": "fengyun-1c-debris", "lat": -14.000479882272254, "lon": 46.93294928868353, "alt_km": 753.4114788578408, "timestamp": "2025-12-06T22:38:43.016107+00:00", "meta": {"OBJECT_NAME": "FENGYUN 1C DEB", "OBJECT_ID": "1999-025DTD", "EPOCH": "2025-12-05T21:21:22.276224", "MEAN_MOTION": 14.20680074, "ECCENTRICITY": 0.02106275, "INCLINATION": 98.4572, "RA_OF_ASC_NODE": 43.7979, "ARG_OF_PERICENTER": 50.8055, "MEAN_ANOMALY": 311.1621, "EPHEMERIS_TYPE": 0, "CLASSIFICATION_TYPE": "U", "NORAD_CAT_ID": 36180, "ELEMENT_SET_NO": 999, "REV_AT_EPOCH": 70486, "BSTAR": 0.00091841135, "MEAN_MOTION_DOT": 2.432e-05, "MEAN_MOTION_DDOT": 0}, "tle": {"line1": "1 36180U 99025DTD 25339.88984116  .00002432  00000+0  91841-3 0  9996", "line2": "2 36180  98.4572  43.7979 0210627  50.8055 311.1621 14.20680074704867"}}, "geometry": {"type": "Point", "coordinates": [46.93294928868353, -14.000479882272254]}}, {"type": "Feature", "properties": {"norad_id": 36182, "name": "FENGYUN 1C DEB", "group": "fengyun-1c-debris", "lat": -64.30429095972646, "lon": -72.37186606995574, "alt_km": 797.5830515968764, "timestamp": "2025-12-06T22:38:43.016117+00:00", "meta": {"OBJECT_NAME": "FENGYUN 1C DEB", "OBJECT_ID": "1999-025DTF", "EPOCH": "2025-12-06T12:54:34.337088", "MEAN_MOTION": 14.3464253, "ECCENTRICITY": 0.00214216, "INCLINATION": 99.0884, "RA_OF_ASC_NODE": 267.7711, "ARG_OF_PERICENTER": 93.0807, "MEAN_ANOMALY": 267.2828, "EPHEMERIS_TYPE": 0, "CLASSIFICATION_TYPE": "U", "NORAD_CAT_ID": 36182, "ELEMENT_SET_NO": 999, "REV_AT_EPOCH": 87868, "BSTAR": 0.0026353126, "MEAN_MOTION_DOT": 7.431e-05, "MEAN_MOTION_DDOT": 0}, "tle": {"line1": "1 36182U 99025DTF 25340.53789742  .00007431  00000+0  26353-2 0  9999", "line2": "2 36182  99.0884 267.7711 0021421  93.0807 267.2828 14.34642530878682"}}, "geometry": {"type": "Point", "coordinates": [-72.37186606995574, -64.30429095972646]}}, {"type": "Feature", "properties": {"norad_id": 36186, "name": "FENGYUN 1C DEB", "group": "fengyun-1c-debris", "lat": 17.128732163701116, "lon": -159.53462520221169, "alt_km": 530.3566495801979, "timestamp": "2025-12-06T22:38:43.016127+00:00", "meta": {"OBJECT_NAME": "FENGYUN 1C DEB", "OBJECT_ID": "1999-025DTK", "EPOCH": "2025-12-06T02:33:05.742144", "MEAN_MOTION": 15.0878318, "ECCENTRICITY": 0.00149388, "INCLINATION": 98.985, "RA_OF_ASC_NODE": 202.2814, "ARG_OF_PERICENTER": 351.2319, "MEAN_ANOMALY": 160.819, "EPHEMERIS_TYPE": 0, "CLASSIFICATION_TYPE": "U", "NORAD_CAT_ID": 36186, "ELEMENT_SET_NO": 999, "REV_AT_EPOCH": 61470, "BSTAR": 0.013316383, "MEAN_MOTION_DOT": 0.00215969, "MEAN_MOTION_DDOT": 0}, "tle": {"line1": "1 36186U 99025DTK 25340.10631646  .00215969  00000+0  13316-1 0  9996", "line2": "2 36186  98.9850 202.2814 0014938 351.2319 160.8190 15.08783180614707"}}, "geometry": {"type": "Point", "coordinates": [-159.53462520221169, 17.128732163701116]}}, {"type": "Feature", "properties": {"norad_id": 36188, "name": "FENGYUN 1C DEB", "group": "fengyun-1c-debris", "lat": 0.05623411008065089, "lon": -98.83447262476606, "alt_km": 721.3438695732912, "timestamp": "2025-12-06T22:38:43.016137+00:00", "meta": {"OBJECT_NAME": "FENGYUN 1C DEB", "OBJECT_ID": "1999-025DTM", "EPOCH": "2025-12-06T00:26:45.096864", "MEAN_MOTION": 14.6043913, "ECCENTRICITY": 0.0047401, "INCLINATION": 98.5867, "RA_OF_ASC_NODE": 80.1988, "ARG_OF_PERICENTER": 325.7511, "MEAN_ANOMALY": 34.0633, "EPHEMERIS_TYPE": 0, "CLASSIFICATION_TYPE": "U", "NORAD_CAT_ID": 36188, "ELEMENT_SET_NO": 999, "REV_AT_EPOCH": 87954, "BSTAR": 0.0036772102, "MEAN_MOTION_DOT": 0.0001809, "MEAN_MOTION_DDOT": 0}, "tle": {"line1": "1 36188U 99025DTM 25340.01857751  .00018090  00000+0  36772-2 0  9993", "line2": "2 36188  98.5867  80.1988 0047401 325.7511  34.0633 14.60439130879548"}}, "geometry": {"type": "Point", "coordinates": [-98.83447262476606, 0.05623411008065089]}}, {"type": "Feature", "properties": {"norad_id": 36198, "name": "FENGYUN 1C DEB", "group": "fengyun-1c-debris", "lat": -76.21154646430071, "lon": 48.743643515575485, "alt_km": 934.2675651323234, "timestamp": "2025-12-06T22:38:43.016148+00:00", "meta": {"OBJECT_NAME": "FENGYUN 1C DEB", "OBJECT_ID": "1999-025DTX", "EPOCH": "2025-12-06T12:47:36.841920", "MEAN_MOTION": 14.07854185, "ECCENTRICITY": 0.00971183, "INCLINATION": 98.6232, "RA_OF_ASC_NODE": 10.1569, "ARG_OF_PERICENTER": 132.8086, "MEAN_ANOMALY": 228.1301, "EPHEMERIS_TYPE": 0, "CLASSIFICATION_TYPE": "U", "NORAD_CAT_ID": 36198, "ELEMENT_SET_NO": 999, "REV_AT_EPOCH": 63500, "BSTAR": 0.002549244, "MEAN_MOTION_DOT": 4.475e-05, "MEAN_MOTION_DDOT": 0}, "tle": {"line1": "1 36198U 99025DTX 25340.53306530  .00004475  00000+0  25492-2 0  9994", "line2": "2 36198  98.6232  10.1569 0097118 132.8086 228.1301 14.07854185635009"}}, "geometry": {"type": "Point", "coordinates": [48.743643515575485, -76.21154646430071]}}, {"type": "Feature", "properties": {"norad_id": 36199, "name": "FENGYUN 1C DEB", "group": "fengyun-1c-debris", "lat": 36.20262991073724, "lon": -3.7647200372361387, "alt_km": 745.0106185897312, "timestamp": "2025-12-06T22:38:43.016158+00:00", "meta": {"OBJECT_NAME": "FENGYUN 1C DEB", "OBJECT_ID": "1999-025DTY", "EPOCH": "2025-12-03T20:34:05.424672", "MEAN_MOTION": 14.29630765, "ECCENTRICITY": 0.0093185, "INCLINATION": 98.2904, "RA_OF_ASC_NODE": 359.4233, "ARG_OF_PERICENTER": 93.4986, "MEAN_ANOMALY": 267.6861, "EPHEMERIS_TYPE": 0, "CLASSIFICATION_TYPE": "U", "NORAD_CAT_ID": 36199, "ELEMENT_SET_NO": 999, "REV_AT_EPOCH": 64853, "BSTAR": 0.00046153, "MEAN_MOTION_DOT": 1.199e-05, "MEAN_MOTION_DDOT": 0}, "tle": {"line1": "1 36199U 99025DTY 25337.85700723  .00001199  00000+0  46153-3 0  9996", "line2": "2 36199  98.2904 359.4233 0093185  93.4986 267.6861 14.29630765648531"}}, "geometry": {"type": "Point", "coordinates": [-3.7647200372361387, 36.20262991073724]}}, {"type": "Feature", "properties": {"norad_id": 36200, "name": "FENGYUN 1C DEB", "group": "fengyun-1c-debris", "lat": -58.107968109777346, "lon": 69.57405815800556, "alt_km": 704.4108668527197, "timestamp": "2025-12-06T22:38:43.016169+00:00", "meta": {"OBJECT_NAME": "FENGYUN 1C DEB", "OBJECT_ID": "1999-025DTZ", "EPOCH": "2025-12-03T10:55:39.061344", "MEAN_MOTION": 14.58084214, "ECCENTRICITY": 0.00335627, "INCLINATION": 99.3879, "RA_OF_ASC_NODE": 50.2216, "ARG_OF_PERICENTER": 37.7962, "MEAN_ANOMALY": 322.5582, "EPHEMERIS_TYPE": 0, "CLASSIFICATION_TYPE": "U", "NORAD_CAT_ID": 36200, "ELEMENT_SET_NO": 999, "REV_AT_EPOCH": 73225, "BSTAR": 0.0051485049, "MEAN_MOTION_DOT": 0.00023905, "MEAN_MOTION_DDOT": 0}, "tle": {"line1": "1 36200U 99025DTZ 25337.45531321  .00023905  00000+0  51485-2 0  9993", "line2": "2 36200  99.3879  50.2216 0033562  37.7962 322.5582 14.58084214732250"}}, "geometry": {"type": "Point", "coordinates": [69.57405815800556, -58.107968109777346]}}, {"type": "Feature", "properties": {"norad_id": 36203, "name": "FENGYUN 1C DEB", "group": "fengyun-1c-debris", "lat": -39.55295511979928, "lon": 96.36929171337653, "alt_km": 606.4865177095026, "timestamp": "2025-12-06T22:38:43.016178+00:00", "meta": {"OBJECT_NAME": "FENGYUN 1C DEB", "OBJECT_ID": "1999-025DUC", "EPOCH": "2025-12-02T02:18:32.511168", "MEAN_MOTION": 14.78101467, "ECCENTRICITY": 0.00828267, "INCLINATION": 99.0947, "RA_OF_ASC_NODE": 278.5034, "ARG_OF_PERICENTER": 181.911, "MEAN_ANOMALY": 178.1793, "EPHEMERIS_TYPE": 0, "CLASSIFICATION_TYPE": "U", "NORAD_CAT_ID": 36203, "ELEMENT_SET_NO": 999, "REV_AT_EPOCH": 63272, "BSTAR": 0.0013137928, "MEAN_MOTION_DOT": 0.00010006, "MEAN_MOTION_DDOT": 0}, "tle": {"line1": "1 36203U 99025DUC 25336.09620962  .00010006  00000+0  13138-2 0  9996", "line2": "2 36203  99.0947 278.5034 0082826 181.9110 178.1793 14.78101467632725"}}, "geometry": {"type": "Point", "coordinates": [96.36929171337653, -39.55295511979928]}}, {"type": "Feature", "properties": {"norad_id": 36204, "name": "FENGYUN 1C DEB", "group": "fengyun-1c-debris", "lat": -4.314870266616277, "lon": -103.12040893654114, "alt_km": 765.8550138508817, "timestamp": "2025-12-06T22:38:43.016189+00:00", "meta": {"OBJECT_NAME": "FENGYUN 1C DEB", "OBJECT_ID": "1999-025DUD", "EPOCH": "2025-12-04T12:52:24.876192", "MEAN_MOTION": 14.34488584, "ECCENTRICITY": 0.0020013, "INCLINATION": 99.2915, "RA_OF_ASC_NODE": 75.0011, "ARG_OF_PERICENTER": 185.0266, "MEAN_ANOMALY": 175.0719, "EPHEMERIS_TYPE": 0, "CLASSIFICATION_TYPE": "U", "NORAD_CAT_ID": 36204, "ELEMENT_SET_NO": 999, "REV_AT_EPOCH": 94310, "BSTAR": 0.0030031, "MEAN_MOTION_DOT": 8.445e-05, "MEAN_MOTION_DDOT": 0}, "tle": {"line1": "1 36204U 99025DUD 25338.53639903  .00008445  00000+0  30031-2 0  9998", "line2": "2 36204  99.2915  75.0011 0020013 185.0266 175.0719 14.34488584943106"}}, "geometry": {"type": "Point", "coordinates": [-103.12040893654114, -4.314870266616277]}}]}